start=new Date('2022-01-15T00:00:00.000Z').valueOf();
sats=[{"SITE":"AFETR","RCS_SIZE":"LARGE","INCLINATION":"53.0566","TLE_LINE2":"2 45221  53.0566 328.3189 0001795  61.0868 299.0300 15.06394983107038","PERIAPSIS":"545.986","COUNTRY_CODE":"US","BSTAR":"0.00005672800000","MEAN_MOTION":"15.06394983","REF_FRAME":"TEME","EPOCH":"2022-01-14T13:22:23.191104","CLASSIFICATION_TYPE":"U","SEMIMAJOR_AXIS":"6925.364","MEAN_MOTION_DDOT":"0.0000000000000","MEAN_ELEMENT_THEORY":"SGP4","DECAY_DATE":null,"LAUNCH_DATE":"2020-02-17","OBJECT_ID":"2020-012AV","ARG_OF_PERICENTER":"61.0868","MEAN_MOTION_DOT":"0.00000563","CENTER_NAME":"EARTH","EPHEMERIS_TYPE":"0","FILE":"3272874","MEAN_ANOMALY":"299.0300","REV_AT_EPOCH":"10703","NORAD_CAT_ID":"45221","RA_OF_ASC_NODE":"328.3189","ECCENTRICITY":"0.00017950","ELEMENT_SET_NO":"999","PERIOD":"95.592","TIME_SYSTEM":"UTC","TLE_LINE1":"1 45221U 20012AV  22014.55721286  .00000563  00000-0  56728-4 0  9990","GP_ID":"193844501","OBJECT_TYPE":"PAYLOAD","APOAPSIS":"548.472","OBJECT_NAME":"STARLINK-1189"},{"LAUNCH_DATE":"2020-02-17","MEAN_ELEMENT_THEORY":"SGP4","DECAY_DATE":null,"MEAN_MOTION_DOT":"0.00000773","ARG_OF_PERICENTER":"65.4108","CENTER_NAME":"EARTH","OBJECT_ID":"2020-012AW","MEAN_MOTION_DDOT":"0.0000000000000","SEMIMAJOR_AXIS":"6925.333","EPOCH":"2022-01-14T13:32:59.338752","CLASSIFICATION_TYPE":"U","BSTAR":"0.00007080900000","COUNTRY_CODE":"US","REF_FRAME":"TEME","MEAN_MOTION":"15.06404997","RCS_SIZE":"LARGE","INCLINATION":"53.0542","SITE":"AFETR","PERIAPSIS":"545.911","TLE_LINE2":"2 45222  53.0542 328.2917 0001859  65.4108 294.7074 15.06404997107034","APOAPSIS":"548.486","OBJECT_TYPE":"PAYLOAD","OBJECT_NAME":"STARLINK-1191","PERIOD":"95.592","TLE_LINE1":"1 45222U 20012AW  22014.56457568  .00000773  00000-0  70809-4 0  9990","GP_ID":"193845255","TIME_SYSTEM":"UTC","ECCENTRICITY":"0.00018590","ELEMENT_SET_NO":"999","EPHEMERIS_TYPE":"0","RA_OF_ASC_NODE":"328.2917","NORAD_CAT_ID":"45222","REV_AT_EPOCH":"10703","FILE":"3272874","MEAN_ANOMALY":"294.7074"},{"ELEMENT_SET_NO":"999","ECCENTRICITY":"0.00017500","NORAD_CAT_ID":"45223","RA_OF_ASC_NODE":"328.1919","FILE":"3272874","MEAN_ANOMALY":"294.8805","REV_AT_EPOCH":"10704","EPHEMERIS_TYPE":"0","OBJECT_NAME":"STARLINK-1212","OBJECT_TYPE":"PAYLOAD","APOAPSIS":"548.396","GP_ID":"193845500","TLE_LINE1":"1 45223U 20012AX  22014.58669668  .00004487  00000-0  31985-3 0  9996","TIME_SYSTEM":"UTC","PERIOD":"95.592","REF_FRAME":"TEME","MEAN_MOTION":"15.06409591","BSTAR":"0.00031985000000","COUNTRY_CODE":"US","PERIAPSIS":"545.972","TLE_LINE2":"2 45223  53.0552 328.1919 0001750  65.2366 294.8805 15.06409591107040","RCS_SIZE":"LARGE","INCLINATION":"53.0552","SITE":"AFETR","CENTER_NAME":"EARTH","ARG_OF_PERICENTER":"65.2366","MEAN_MOTION_DOT":"0.00004487","OBJECT_ID":"2020-012AX","LAUNCH_DATE":"2020-02-17","DECAY_DATE":null,"MEAN_ELEMENT_THEORY":"SGP4","MEAN_MOTION_DDOT":"0.0000000000000","SEMIMAJOR_AXIS":"6925.319","CLASSIFICATION_TYPE":"U","EPOCH":"2022-01-14T14:04:50.593152"},{"ELEMENT_SET_NO":"999","ECCENTRICITY":"0.00020880","FILE":"3273247","REV_AT_EPOCH":"10839","MEAN_ANOMALY":"327.6953","RA_OF_ASC_NODE":"224.6631","NORAD_CAT_ID":"45224","EPHEMERIS_TYPE":"0","OBJECT_NAME":"STARLINK-1214","OBJECT_TYPE":"PAYLOAD","APOAPSIS":"341.037","TIME_SYSTEM":"UTC","GP_ID":"193877872","TLE_LINE1":"1 45224U 20012AY  22014.83712873  .00024509  00000-0  15309-3 0  9991","PERIOD":"91.327","MEAN_MOTION":"15.76758418","REF_FRAME":"TEME","COUNTRY_CODE":"US","BSTAR":"0.00015309000000","TLE_LINE2":"2 45224  53.0484 224.6631 0002088  32.4194 327.6953 15.76758418108396","PERIAPSIS":"338.231","SITE":"AFETR","RCS_SIZE":"LARGE","INCLINATION":"53.0484","OBJECT_ID":"2020-012AY","ARG_OF_PERICENTER":"32.4194","MEAN_MOTION_DOT":"0.00024509","CENTER_NAME":"EARTH","MEAN_ELEMENT_THEORY":"SGP4","DECAY_DATE":null,"LAUNCH_DATE":"2020-02-17","EPOCH":"2022-01-14T20:05:27.922272","CLASSIFICATION_TYPE":"U","SEMIMAJOR_AXIS":"6717.769","MEAN_MOTION_DDOT":"0.0000000000000"},{"BSTAR":"0.00005130000000","COUNTRY_CODE":"US","MEAN_MOTION":"15.06403735","REF_FRAME":"TEME","SITE":"AFETR","RCS_SIZE":"LARGE","INCLINATION":"53.0573","TLE_LINE2":"2 45225  53.0573 327.1928 0001806  69.0607 291.0575 15.06403735107021","PERIAPSIS":"545.951","MEAN_ELEMENT_THEORY":"SGP4","DECAY_DATE":null,"LAUNCH_DATE":"2020-02-17","OBJECT_ID":"2020-012AZ","MEAN_MOTION_DOT":"0.00000483","ARG_OF_PERICENTER":"69.0607","CENTER_NAME":"EARTH","EPOCH":"2022-01-14T19:17:59.732448","CLASSIFICATION_TYPE":"U","MEAN_MOTION_DDOT":"0.0000000000000","SEMIMAJOR_AXIS":"6925.337","ECCENTRICITY":"0.00018060","ELEMENT_SET_NO":"999","EPHEMERIS_TYPE":"0","MEAN_ANOMALY":"291.0575","FILE":"3273247","REV_AT_EPOCH":"10702","RA_OF_ASC_NODE":"327.1928","NORAD_CAT_ID":"45225","OBJECT_TYPE":"PAYLOAD","APOAPSIS":"548.453","OBJECT_NAME":"STARLINK-1215","PERIOD":"95.592","TIME_SYSTEM":"UTC","TLE_LINE1":"1 45225U 20012AZ  22014.80416357  .00000483  00000-0  51300-4 0  9994","GP_ID":"193876620"},{"LAUNCH_DATE":"2020-02-17","MEAN_ELEMENT_THEORY":"SGP4","DECAY_DATE":null,"MEAN_MOTION_DOT":"0.00001671","ARG_OF_PERICENTER":"73.1225","CENTER_NAME":"EARTH","OBJECT_ID":"2020-012BA","SEMIMAJOR_AXIS":"6925.358","MEAN_MOTION_DDOT":"0.0000000000000","EPOCH":"2022-01-14T03:33:13.754304","CLASSIFICATION_TYPE":"U","BSTAR":"0.00013106000000","COUNTRY_CODE":"US","REF_FRAME":"TEME","MEAN_MOTION":"15.06396758","INCLINATION":"53.0551","RCS_SIZE":"LARGE","SITE":"AFETR","PERIAPSIS":"546.003","TLE_LINE2":"2 45226  53.0551 330.1456 0001762  73.1225 286.9957 15.06396758106887","APOAPSIS":"548.444","OBJECT_TYPE":"PAYLOAD","OBJECT_NAME":"STARLINK-1217","PERIOD":"95.592","GP_ID":"193845756","TLE_LINE1":"1 45226U 20012BA  22014.14807586  .00001671  00000-0  13106-3 0  9991","TIME_SYSTEM":"UTC","ECCENTRICITY":"0.00017620","ELEMENT_SET_NO":"999","EPHEMERIS_TYPE":"0","NORAD_CAT_ID":"45226","RA_OF_ASC_NODE":"330.1456","REV_AT_EPOCH":"10688","FILE":"3272874","MEAN_ANOMALY":"286.9957"},{"RA_OF_ASC_NODE":"328.2642","NORAD_CAT_ID":"45227","FILE":"3273191","MEAN_ANOMALY":"298.9286","REV_AT_EPOCH":"10606","EPHEMERIS_TYPE":"0","ELEMENT_SET_NO":"999","ECCENTRICITY":"0.00017360","TLE_LINE1":"1 45227U 20012BB  22014.56827126 -.00001095  00000-0 -54630-4 0  9990","GP_ID":"193856605","TIME_SYSTEM":"UTC","PERIOD":"95.593","OBJECT_NAME":"STARLINK-1221","OBJECT_TYPE":"PAYLOAD","APOAPSIS":"548.441","PERIAPSIS":"546.036","TLE_LINE2":"2 45227  53.0541 328.2642 0001736  61.1877 298.9286 15.06391857106066","RCS_SIZE":"LARGE","INCLINATION":"53.0541","SITE":"AFETR","REF_FRAME":"TEME","MEAN_MOTION":"15.06391857","BSTAR":"-0.00005463000000","COUNTRY_CODE":"US","MEAN_MOTION_DDOT":"0.0000000000000","SEMIMAJOR_AXIS":"6925.374","CLASSIFICATION_TYPE":"U","EPOCH":"2022-01-14T13:38:18.636864","CENTER_NAME":"EARTH","ARG_OF_PERICENTER":"61.1877","MEAN_MOTION_DOT":"-0.00001095","OBJECT_ID":"2020-012BB","LAUNCH_DATE":"2020-02-17","DECAY_DATE":null,"MEAN_ELEMENT_THEORY":"SGP4"},{"COUNTRY_CODE":"US","BSTAR":"0.00006734600000","REF_FRAME":"TEME","MEAN_MOTION":"15.06397343","INCLINATION":"53.0563","RCS_SIZE":"LARGE","SITE":"AFETR","PERIAPSIS":"546.042","TLE_LINE2":"2 45228  53.0563 328.2417 0001703  63.0365 297.0798 15.06397343106927","LAUNCH_DATE":"2020-02-17","DECAY_DATE":null,"MEAN_ELEMENT_THEORY":"SGP4","CENTER_NAME":"EARTH","MEAN_MOTION_DOT":"0.00000722","ARG_OF_PERICENTER":"63.0365","OBJECT_ID":"2020-012BC","SEMIMAJOR_AXIS":"6925.357","MEAN_MOTION_DDOT":"0.0000000000000","CLASSIFICATION_TYPE":"U","EPOCH":"2022-01-14T13:43:36.780672","ECCENTRICITY":"0.00017030","ELEMENT_SET_NO":"999","EPHEMERIS_TYPE":"0","NORAD_CAT_ID":"45228","RA_OF_ASC_NODE":"328.2417","MEAN_ANOMALY":"297.0798","FILE":"3272874","REV_AT_EPOCH":"10692","APOAPSIS":"548.401","OBJECT_TYPE":"PAYLOAD","OBJECT_NAME":"STARLINK-1222","PERIOD":"95.592","TLE_LINE1":"1 45228U 20012BC  22014.57195348  .00000722  00000-0  67346-4 0  9998","GP_ID":"193844256","TIME_SYSTEM":"UTC"},{"ELEMENT_SET_NO":"999","ECCENTRICITY":"0.00020510","RA_OF_ASC_NODE":"326.6226","NORAD_CAT_ID":"45229","FILE":"3273247","REV_AT_EPOCH":"10698","MEAN_ANOMALY":"293.9331","EPHEMERIS_TYPE":"0","OBJECT_NAME":"STARLINK-1226","OBJECT_TYPE":"PAYLOAD","APOAPSIS":"548.632","TLE_LINE1":"1 45229U 20012BD  22014.93317745  .00000834  00000-0  74865-4 0  9994","GP_ID":"193876121","TIME_SYSTEM":"UTC","PERIOD":"95.592","REF_FRAME":"TEME","MEAN_MOTION":"15.06400572","COUNTRY_CODE":"US","BSTAR":"0.00007486500000","PERIAPSIS":"545.791","TLE_LINE2":"2 45229  53.0563 326.6226 0002051  66.1872 293.9331 15.06400572106985","RCS_SIZE":"LARGE","INCLINATION":"53.0563","SITE":"AFETR","MEAN_MOTION_DOT":"0.00000834","ARG_OF_PERICENTER":"66.1872","CENTER_NAME":"EARTH","OBJECT_ID":"2020-012BD","LAUNCH_DATE":"2020-02-17","MEAN_ELEMENT_THEORY":"SGP4","DECAY_DATE":null,"MEAN_MOTION_DDOT":"0.0000000000000","SEMIMAJOR_AXIS":"6925.347","EPOCH":"2022-01-14T22:23:46.531680","CLASSIFICATION_TYPE":"U"},{"COUNTRY_CODE":"US","BSTAR":"0.00005549700000","REF_FRAME":"TEME","MEAN_MOTION":"15.06401845","INCLINATION":"53.0559","RCS_SIZE":"LARGE","SITE":"AFETR","PERIAPSIS":"546.053","TLE_LINE2":"2 45230  53.0559 328.1269 0001667  65.4143 294.7020 15.06401845107058","LAUNCH_DATE":"2020-02-17","MEAN_ELEMENT_THEORY":"SGP4","DECAY_DATE":null,"MEAN_MOTION_DOT":"0.00000545","ARG_OF_PERICENTER":"65.4143","CENTER_NAME":"EARTH","OBJECT_ID":"2020-012BE","MEAN_MOTION_DDOT":"0.0000000000000","SEMIMAJOR_AXIS":"6925.343","EPOCH":"2022-01-14T14:20:45.809088","CLASSIFICATION_TYPE":"U","ECCENTRICITY":"0.00016670","ELEMENT_SET_NO":"999","EPHEMERIS_TYPE":"0","NORAD_CAT_ID":"45230","RA_OF_ASC_NODE":"328.1269","REV_AT_EPOCH":"10705","FILE":"3273247","MEAN_ANOMALY":"294.7020","OBJECT_TYPE":"PAYLOAD","APOAPSIS":"548.362","OBJECT_NAME":"STARLINK-1227","PERIOD":"95.592","GP_ID":"193876371","TLE_LINE1":"1 45230U 20012BE  22014.59775242  .00000545  00000-0  55497-4 0  9997","TIME_SYSTEM":"UTC"}];
